STARLINK-34171          
1 64082U 25107U   25166.27021367 -.00134409  00000+0 -23110-2 0  9994
2 64082  43.0002 273.4012 0004573 335.4230  24.6411 15.50730161  5203
STARLINK-34126          
1 64083U 25107V   25165.69409839  .00045259  00000+0  94096-3 0  9998
2 64083  42.9995 276.8167 0019510 251.3293 108.5447 15.44719692  4022
STARLINK-34157          
1 64084U 25107W   25166.59124437  .00054006  00000+0  91925-3 0  9995
2 64084  42.9982 271.5083 0001822 268.2748  91.7903 15.50602680  5236
STARLINK-34140          
1 64085U 25107X   25165.75479392  .04279001  00000+0  50116-1 0  9999
2 64085  42.9996 276.4138 0035262 307.1224  52.6418 15.55691875  5106
STARLINK-34132          
1 64086U 25107Y   25165.75453492  .00056806  00000+0  96612-3 0  9998
2 64086  43.0002 276.4105 0002359 277.2504  82.8088 15.50605988  4821
2025-108A               
1 64087U 25108A   25166.53680541  .00004669  00000+0  26334-3 0  9998
2 64087  97.5126 242.0033 0016027 197.9901 162.0765 15.13552250  3844
2025-108B               
1 64088U 25108B   25166.54333895  .00006344  00000+0  35975-3 0  9990
2 64088  97.5091 241.9831 0015267 191.9537 168.1334 15.13228214  3809
2025-108C               
1 64089U 25108C   25166.61203950  .00004783  00000+0  27366-3 0  9997
2 64089  97.5059 242.0313 0016477 192.0375 168.0465 15.13014481  3811
2025-108D               
1 64090U 25108D   25166.60715852  .00004065  00000+0  23076-3 0  9994
2 64090  97.5059 242.0414 0015167 196.2588 163.8159 15.13409234  3819
2025-108E               
1 64091U 25108E   25166.60842754  .00007702  00000+0  43451-3 0  9997
2 64091  97.5053 242.0377 0015298 191.9783 168.1086 15.13337460  3814
2025-108F               
1 64092U 25108F   25166.53968872  .00008029  00000+0  45041-3 0  9990
2 64092  97.5048 241.9743 0015361 194.7261 165.3525 15.13527285  3809
ZK-1 R/B                
1 64093U 25108G   25166.56321711  .00009089  00000+0  22013-3 0  9990
2 64093  97.4636 242.7269 0103780 287.9205  71.0745 15.35835291  3866
COSMOS 2588             
1 64095U 25109A   25166.61097972  .00008149  00000+0  27404-3 0  9993
2 64095  72.9735 318.9421 0011293 207.1478 152.9130 15.30936934  3560
STARLINK-34178          
1 64096U 25110A   25166.47995507  .00045801  00000+0  82511-3 0  9997
2 64096  53.1600 197.7116 0000581  62.9781 297.1287 15.49364947  4834
STARLINK-34174          
1 64097U 25110B   25166.56728204 -.00228005  00000+0 -52488-2 0  9996
2 64097  53.1594 197.5480 0000488  78.2529 281.8532 15.42934467  4842
STARLINK-34146          
1 64098U 25110C   25166.56431610 -.00291918  00000+0 -62352-2 0  9993
2 64098  53.1594 197.5286 0001025  94.6917 265.4207 15.45385935  4848
STARLINK-34074          
1 64099U 25110D   25166.56260878 -.00289781  00000+0 -57017-2 0  9997
2 64099  53.1592 197.5176 0001154  91.5960 268.5180 15.47747964  4842
STARLINK-34082          
1 64100U 25110E   25166.57110887 -.00159996  00000+0 -40315-2 0  9992
2 64100  53.1592 197.5717 0000768 110.5531 249.5556 15.39941156  4848
STARLINK-34072          
1 64101U 25110F   25166.56665540 -.00116924  00000+0 -26896-2 0  9995
2 64101  53.1593 197.5437 0000500 350.9625   9.1372 15.42479541  4841
STARLINK-34104          
1 64102U 25110G   25166.36962079 -.00174661  00000+0 -36841-2 0  9994
2 64102  53.1593 198.4459 0002751 138.0281 222.0938 15.45279610  4818
STARLINK-34179          
1 64103U 25110H   25166.56165315 -.00295790  00000+0 -60181-2 0  9996
2 64103  53.1594 197.5112 0001131  89.7894 270.3243 15.46808931  4842
STARLINK-34176          
1 64104U 25110J   25166.56056148 -.00155066  00000+0 -28621-2 0  9994
2 64104  53.1592 197.5039 0001108 130.7132 229.3973 15.49045334  4842
STARLINK-33949          
1 64105U 25110K   25166.49567699  .00016451  00000+0  30332-3 0  9990
2 64105  53.1591 197.8101 0001496 308.7539  51.3336 15.49300240  4838
STARLINK-33970          
1 64106U 25110L   25166.49532542  .00063374  00000+0  11373-2 0  9999
2 64106  53.1591 197.8075 0000897  89.2340 270.8772 15.49333994  4838
STARLINK-33912          
1 64107U 25110M   25166.49498436  .00057040  00000+0  10257-2 0  9996
2 64107  53.1590 197.8054 0001015  97.0613 263.0512 15.49321524  4830
STARLINK-34156          
1 64108U 25110N   25166.49463883  .00037964  00000+0  68676-3 0  9997
2 64108  53.1590 197.8029 0001030  82.8508 277.2618 15.49332520  4837
STARLINK-34124          
1 64109U 25110P   25166.49429356  .00037648  00000+0  68136-3 0  9995
2 64109  53.1591 197.8004 0001005  88.1788 271.9336 15.49323237  4836
STARLINK-34145          
1 64110U 25110Q   25166.49395382  .00062581  00000+0  11235-2 0  9999
2 64110  53.1591 197.7983 0001247  74.0080 286.1066 15.49328242  4839
STARLINK-34148          
1 64111U 25110R   25166.49360755  .00038029  00000+0  68816-3 0  9994
2 64111  53.1591 197.7959 0000991  93.0523 267.0600 15.49322452  4830
STARLINK-34136          
1 64112U 25110S   25166.36424747  .00049047  00000+0  88306-3 0  9991
2 64112  53.1591 198.4100 0000950 103.1808 256.9307 15.49352110  4814
STARLINK-33839          
1 64113U 25110T   25166.36390583  .00050706  00000+0  91297-3 0  9999
2 64113  53.1589 198.4083 0000674  83.9116 276.1969 15.49336290  4811
STARLINK-34064          
1 64114U 25110U   25166.49257704  .00053704  00000+0  96589-3 0  9991
2 64114  53.1590 197.7884 0000886  95.7087 264.4023 15.49342218  4838
STARLINK-34067          
1 64115U 25110V   25166.49223297  .00045130  00000+0  81423-3 0  9997
2 64115  53.1592 197.7861 0001016  92.2801 267.8324 15.49329525  4835
STARLINK-34080          
1 64116U 25110W   25166.49189333  .00042438  00000+0  76669-3 0  9994
2 64116  53.1589 197.7839 0001283  93.4127 266.7029 15.49318606  4835
STARLINK-34122          
1 64117U 25110X   25166.49154872  .00035355  00000+0  64050-3 0  9996
2 64117  53.1590 197.7813 0001103  85.4002 274.7133 15.49325389  4835
STARLINK-33964          
1 64118U 25110Y   25166.49120533  .00059541  00000+0  10698-2 0  9995
2 64118  53.1590 197.7787 0001035 100.1425 259.9701 15.49326526  4834
STARLINK-34160          
1 64119U 25110Z   25166.36184575  .00058329  00000+0  10482-2 0  9992
2 64119  53.1591 198.3941 0000224 348.6553  11.4451 15.49330480  4810
STARLINK-34151          
1 64120U 25110AA  25166.49051635  .00047823  00000+0  86181-3 0  9995
2 64120  53.1590 197.7745 0000360  88.0036 272.1014 15.49336824  4839
STARLINK-34189          
1 64121U 25110AB  25166.36081306  .00049126  00000+0  88476-3 0  9997
2 64121  53.1592 198.3876 0000869  87.5978 272.5130 15.49342427  4814
STARLINK-33991          
1 64122U 25110AC  25166.49017315  .00058305  00000+0  10476-2 0  9994
2 64122  53.1590 197.7732 0001103 104.5150 255.5981 15.49335473  4820
STARLINK-11727 [DTC]    
1 64123U 25111A   25166.39903434  .00111643  00000+0  63445-3 0  9991
2 64123  42.9994 146.5777 0001714 249.1892 110.8795 15.77911587  4589
STARLINK-11724 [DTC]    
1 64124U 25111B   25166.39416065  .00230869  00000+0  12911-2 0  9994
2 64124  42.9991 146.5374 0001675 269.8325  90.2353 15.77904539  4586
STARLINK-11725 [DTC]    
1 64125U 25111C   25166.38929385  .00267219  00000+0  14817-2 0  9994
2 64125  42.9987 146.4974 0000910 281.9610  78.1158 15.77991968  4580
STARLINK-11717 [DTC]    
1 64126U 25111D   25166.37951742  .00196635  00000+0  11026-2 0  9998
2 64126  42.9995 146.4196 0001052 273.0633  87.0116 15.77943782  4530
STARLINK-11721 [DTC]    
1 64127U 25111E   25166.38439757  .00108421  00000+0  61672-3 0  9996
2 64127  42.9991 146.4589 0001737 271.2454  88.8218 15.77902124  4586
STARLINK-11722 [DTC]    
1 64128U 25111F   25166.37463816  .00149281  00000+0  84357-3 0  9993
2 64128  43.0000 146.3803 0001305 266.2900  93.7821 15.77913905  4538
STARLINK-11679 [DTC]    
1 64129U 25111G   25166.36976019  .00146133  00000+0  82581-3 0  9997
2 64129  43.0003 146.3414 0001529 288.1860  71.8843 15.77922836  4585
STARLINK-11735 [DTC]    
1 64130U 25111H   25166.36488138  .00105516  00000+0  60060-3 0  9997
2 64130  43.0010 146.3015 0001341 283.1402  76.9318 15.77898069  4438
STARLINK-11720 [DTC]    
1 64131U 25111J   25166.42329924  .00230279  00000+0  12866-2 0  9997
2 64131  43.0005 145.8751 0000837 267.5122  92.5653 15.77927043  4541
STARLINK-11718 [DTC]    
1 64132U 25111K   25165.32984100  .00044123  00000+0  20976-3 0  9992
2 64132  43.0013 152.2870 0002588 301.3361  58.7257 15.82140478  4473
STARLINK-11716 [DTC]    
1 64133U 25111L   25166.40865990  .00210957  00000+0  11815-2 0  9999
2 64133  43.0009 145.7546 0001695 268.8150  91.2526 15.77928542  4647
STARLINK-11714 [DTC]    
1 64134U 25111M   25166.41841936  .00211930  00000+0  11866-2 0  9993
2 64134  43.0014 145.8353 0001252 277.9412  82.1316 15.77932514  4596
STARLINK-11712 [DTC]    
1 64135U 25111N   25166.28700780 -.00095164  00000+0 -52459-3 0  9995
2 64135  43.0016 146.5666 0002523 310.9539  49.1113 15.78901040  4571
STARLINK-34254          
1 64136U 25111P   25166.33208618 -.00274735  00000+0 -56810-2 0  9992
2 64136  43.0003 148.7122 0001202 336.1525  23.9278 15.46039449  4568
STARLINK-34230          
1 64137U 25111Q   25166.39394662  .00008814  00000+0  15589-3 0  9994
2 64137  43.0004 148.3162 0001645 250.5770 109.4912 15.50580748  4576
STARLINK-34129          
1 64138U 25111R   25166.39331830 -.00122211  00000+0 -21321-2 0  9993
2 64138  43.0002 148.3109 0000818 259.0663 101.0105 15.50287888  4629
STARLINK-34212          
1 64139U 25111S   25166.39363802  .00043778  00000+0  74758-3 0  9999
2 64139  43.0001 148.3134 0001046 266.5642  93.5099 15.50590222  4571
STARLINK-34149          
1 64140U 25111T   25166.39293220  .00037181  00000+0  63650-3 0  9997
2 64140  42.9996 148.3082 0000792 282.7810  77.2962 15.50582922  4576
STARLINK-34054          
1 64141U 25111U   25166.39258690  .00031881  00000+0  54660-3 0  9992
2 64141  42.9997 148.3046 0000966 264.3235  95.7515 15.50602094  4570
